$$SOE
2459580.500000000, A.D. 2022-Jan-01 00:00:00.0000, 3.147034928295546E+08, -2.095592330827134E+08, 9.829534894959077E+06,
2459587.500000000, A.D. 2022-Jan-08 00:00:00.0000, 3.210000755925995E+08, -1.996824776429516E+08, 8.648069973959491E+06,
2459594.500000000, A.D. 2022-Jan-15 00:00:00.0000, 3.270087251606910E+08, -1.896265055995064E+08, 7.458823818540730E+06,
2459601.500000000, A.D. 2022-Jan-22 00:00:00.0000, 3.327239317285655E+08, -1.794002766334962E+08, 6.262861269989319E+06,
2459608.500000000, A.D. 2022-Jan-29 00:00:00.0000, 3.381405096778740E+08, -1.690129436827284E+08, 5.061255509255335E+06,
2459615.500000000, A.D. 2022-Feb-05 00:00:00.0000, 3.432536036614060E+08, -1.584738395650739E+08, 3.855086546676129E+06,
2459622.500000000, A.D. 2022-Feb-12 00:00:00.0000, 3.480586960887513E+08, -1.477924642299465E+08, 2.645439408699617E+06,
2459629.500000000, A.D. 2022-Feb-19 00:00:00.0000, 3.525516146621719E+08, -1.369784703193010E+08, 1.433402342620984E+06,
2459636.500000000, A.D. 2022-Feb-26 00:00:00.0000, 3.567285386297572E+08, -1.260416478153498E+08, 2.200651065649614E+05,
2459643.500000000, A.D. 2022-Mar-05 00:00:00.0000, 3.605860038971505E+08, -1.149919084479244E+08, -9.934827143983915E+05,
2459650.500000000, A.D. 2022-Mar-12 00:00:00.0000, 3.641209072057800E+08, -1.038392699842590E+08, -2.206153385885537E+06,
2459657.500000000, A.D. 2022-Mar-19 00:00:00.0000, 3.673305094393392E+08, -9.259384043097144E+07, -3.416862694020785E+06,
2459664.500000000, A.D. 2022-Mar-26 00:00:00.0000, 3.702124380763215E+08, -8.126580221263318E+07, -4.624531604271293E+06,
2459671.500000000, A.D. 2022-Apr-02 00:00:00.0000, 3.727646888560112E+08, -6.986539644179937E+07, -5.828087914547119E+06,
2459678.500000000, A.D. 2022-Apr-09 00:00:00.0000, 3.749856269321453E+08, -5.840290733434206E+07, -7.026467921892803E+06,
2459685.500000000, A.D. 2022-Apr-16 00:00:00.0000, 3.768739878764660E+08, -4.688864617151378E+07, -8.218618076906163E+06,
2459692.500000000, A.D. 2022-Apr-23 00:00:00.0000, 3.784288772771478E+08, -3.533293377733148E+07, -9.403496415408034E+06,
2459699.500000000, A.D. 2022-Apr-30 00:00:00.0000, 3.796497670834929E+08, -2.374608381213279E+07, -1.058007377426229E+07,
2459706.500000000, A.D. 2022-May-07 00:00:00.0000, 3.805364917790205E+08, -1.213838891081948E+07, -1.174733522942532E+07,
2459713.500000000, A.D. 2022-May-14 00:00:00.0000, 3.810892457928355E+08, -5.201066763923699E+05, -1.290428163138443E+07,
2459720.500000000, A.D. 2022-May-21 00:00:00.0000, 3.813085801456784E+08, 1.109855518443274E+07, -1.404993098576532E+07,
2459727.500000000, A.D. 2022-May-28 00:00:00.0000, 3.811953978840092E+08, 2.270745358088962E+07, -1.518331971010806E+07,
2459734.500000000, A.D. 2022-Jun-04 00:00:00.0000, 3.807509486139917E+08, 3.429652425876229E+07, -1.630350381489944E+07,
2459741.500000000, A.D. 2022-Jun-11 00:00:00.0000, 3.799768223166227E+08, 4.585579548512810E+07, -1.740956001954902E+07,
2459748.500000000, A.D. 2022-Jun-18 00:00:00.0000, 3.788749425199723E+08, 5.737540117426189E+07, -1.850058680377910E+07,
2459755.500000000, A.D. 2022-Jun-25 00:00:00.0000, 3.774475588949932E+08, 6.884559338895629E+07, -1.957570539812318E+07,
2459762.500000000, A.D. 2022-Jul-02 00:00:00.0000, 3.756972394461882E+08, 8.025675412403844E+07, -2.063406072969679E+07,
2459769.500000000, A.D. 2022-Jul-09 00:00:00.0000, 3.736268627258750E+08, 9.159940652688821E+07, -2.167482234335161E+07,
2459776.500000000, A.D. 2022-Jul-16 00:00:00.0000, 3.712396100566284E+08, 1.028642266215037E+08, -2.269718520357042E+07,
2459783.500000000, A.D. 2022-Jul-23 00:00:00.0000, 3.685389556101003E+08, 1.140420556043778E+08, -2.370037016828996E+07,
2459790.500000000, A.D. 2022-Jul-30 00:00:00.0000, 3.655286544814216E+08, 1.251239093478237E+08, -2.468362441702411E+07,
2459797.500000000, A.D. 2022-Aug-06 00:00:00.0000, 3.622127324065912E+08, 1.361009857450711E+08, -2.564622211169235E+07,
2459804.500000000, A.D. 2022-Aug-13 00:00:00.0000, 3.585954763410894E+08, 1.469646726429275E+08, -2.658746499039850E+07,
2459811.500000000, A.D. 2022-Aug-20 00:00:00.0000, 3.546814243721352E+08, 1.577065558555862E+08, -2.750668279229245E+07,
2459818.500000000, A.D. 2022-Aug-27 00:00:00.0000, 3.504753550745059E+08, 1.683184265333574E+08, -2.840323358043329E+07,
2459825.500000000, A.D. 2022-Sep-03 00:00:00.0000, 3.459822765985188E+08, 1.787922877791495E+08, -2.927650399600822E+07,
2459832.500000000, A.D. 2022-Sep-10 00:00:00.0000, 3.412074156197388E+08, 1.891203605428888E+08, -3.012590945205709E+07,
2459839.500000000, A.D. 2022-Sep-17 00:00:00.0000, 3.361562062180824E+08, 1.992950888011305E+08, -3.095089427166295E+07,
2459846.500000000, A.D. 2022-Sep-24 00:00:00.0000, 3.308342787838333E+08, 2.093091439825398E+08, -3.175093178272559E+07,
2459853.500000000, A.D. 2022-Oct-01 00:00:00.0000, 3.252474492268229E+08, 2.191554286306691E+08, -3.252552439596009E+07,
2459860.500000000, A.D. 2022-Oct-08 00:00:00.0000, 3.194017089308878E+08, 2.288270798400940E+08, -3.327420366396290E+07,
2459867.500000000, A.D. 2022-Oct-15 00:00:00.0000, 3.133032145511070E+08, 2.383174736784970E+08, -3.399653014057415E+07,
2459874.500000000, A.D. 2022-Oct-22 00:00:00.0000, 3.069582754982907E+08, 2.476202289299505E+08, -3.469209298028060E+07,
2459881.500000000, A.D. 2022-Oct-29 00:00:00.0000, 3.003733416397595E+08, 2.567292075882924E+08, -3.536050972221729E+07,
2459888.500000000, A.D. 2022-Nov-05 00:00:00.0000, 2.935549933426508E+08, 2.656385148589456E+08, -3.600142623070236E+07,
2459895.500000000, A.D. 2022-Nov-12 00:00:00.0000, 2.865099319143417E+08, 2.743424999549420E+08, -3.661451651088400E+07,
2459902.500000000, A.D. 2022-Nov-19 00:00:00.0000, 2.792449697389187E+08, 2.828357567554460E+08, -3.719948241398488E+07,
2459909.500000000, A.D. 2022-Nov-26 00:00:00.0000, 2.717670203897547E+08, 2.911131239535685E+08, -3.775605329155557E+07,
2459916.500000000, A.D. 2022-Dec-03 00:00:00.0000, 2.640830889010442E+08, 2.991696847068340E+08, -3.828398561804627E+07,
2459923.500000000, A.D. 2022-Dec-10 00:00:00.0000, 2.562002622595022E+08, 3.070007658340129E+08, -3.878306258758926E+07,
2459930.500000000, A.D. 2022-Dec-17 00:00:00.0000, 2.481257001551580E+08, 3.146019365579650E+08, -3.925309369247849E+07,
2459937.500000000, A.D. 2022-Dec-24 00:00:00.0000, 2.398666261130030E+08, 3.219690067528405E+08, -3.969391430175425E+07,
2459944.500000000, A.D. 2022-Dec-31 00:00:00.0000, 2.314303193738679E+08, 3.290980248271977E+08, -4.010538526680893E+07,
2459951.500000000, A.D. 2023-Jan-07 00:00:00.0000, 2.228241076568734E+08, 3.359852762281289E+08, -4.048739248949465E+07,
2459958.500000000, A.D. 2023-Jan-14 00:00:00.0000, 2.140553588418550E+08, 3.426272830819691E+08, -4.083984623363248E+07,
2459965.500000000, A.D. 2023-Jan-21 00:00:00.0000, 2.051314709272354E+08, 3.490208018206079E+08, -4.116268038127793E+07,
2459972.500000000, A.D. 2023-Jan-28 00:00:00.0000, 1.960598639356754E+08, 3.551628186246149E+08, -4.145585198900265E+07,
2459979.500000000, A.D. 2023-Feb-04 00:00:00.0000, 1.868479735632859E+08, 3.610505457319332E+08, -4.171934088030985E+07,
2459986.500000000, A.D. 2023-Feb-11 00:00:00.0000, 1.775032447767061E+08, 3.666814184374972E+08, -4.195314912698267E+07,
2459993.500000000, A.D. 2023-Feb-18 00:00:00.0000, 1.680331252935812E+08, 3.720530919809451E+08, -4.215730048259626E+07,
2460000.500000000, A.D. 2023-Feb-25 00:00:00.0000, 1.584450592082692E+08, 3.771634381804464E+08, -4.233183980738957E+07,
2460007.500000000, A.D. 2023-Mar-04 00:00:00.0000, 1.487464808635644E+08, 3.820105418493879E+08, -4.247683249398008E+07,
2460014.500000000, A.D. 2023-Mar-11 00:00:00.0000, 1.389448089943554E+08, 3.865926970119678E+08, -4.259236389764982E+07,
2460021.500000000, A.D. 2023-Mar-18 00:00:00.0000, 1.290474411853183E+08, 3.909084028819297E+08, -4.267853878012654E+07,
2460028.500000000, A.D. 2023-Mar-25 00:00:00.0000, 1.190617488384093E+08, 3.949563595710571E+08, -4.273548078964831E+07,
2460035.500000000, A.D. 2023-Apr-01 00:00:00.0000, 1.089950730660865E+08, 3.987354639371739E+08, -4.276333198484531E+07,
2460042.500000000, A.D. 2023-Apr-08 00:00:00.0000, 9.885472088839220E+07, 4.022448068146824E+08, -4.276225224753159E+07,
2460049.500000000, A.D. 2023-Apr-15 00:00:00.0000, 8.864795939159670E+07, 4.054836705353138E+08, -4.273241846167643E+07,
2460056.500000000, A.D. 2023-Apr-22 00:00:00.0000, 7.838200964901648E+07, 4.084515237001289E+08, -4.267402387451819E+07,
2460063.500000000, A.D. 2023-Apr-29 00:00:00.0000, 6.806404313298316E+07, 4.111480154723980E+08, -4.258727770857520E+07,
2460070.500000000, A.D. 2023-May-06 00:00:00.0000, 5.770117885344590E+07, 4.135729711836686E+08, -4.247240471899553E+07,
2460077.500000000, A.D. 2023-May-13 00:00:00.0000, 4.730048023879403E+07, 4.157263883669385E+08, -4.232964468002871E+07,
2460084.500000000, A.D. 2023-May-20 00:00:00.0000, 3.686895198406097E+07, 4.176084327339201E+08, -4.215925186265320E+07,
2460091.500000000, A.D. 2023-May-27 00:00:00.0000, 2.641353705105715E+07, 4.192194340751784E+08, -4.196149452412684E+07,
2460098.500000000, A.D. 2023-Jun-03 00:00:00.0000, 1.594111386917977E+07, 4.205598821168788E+08, -4.173665441327676E+07,
2460105.500000000, A.D. 2023-Jun-10 00:00:00.0000, 5.458493751886918E+06, 4.216304223274983E+08, -4.148502629546417E+07,
2460112.500000000, A.D. 2023-Jun-17 00:00:00.0000, -5.027581390927407E+06, 4.224318516208655E+08, -4.120691751086277E+07,
2460119.500000000, A.D. 2023-Jun-24 00:00:00.0000, -1.551044073361954E+07, 4.229651140171512E+08, -4.090264759135340E+07,
2460126.500000000, A.D. 2023-Jul-01 00:00:00.0000, -2.598348536442632E+07, 4.232312970962533E+08, -4.057254789220266E+07,
2460133.500000000, A.D. 2023-Jul-08 00:00:00.0000, -3.644018994555801E+07, 4.232316300720237E+08, -4.021696101862699E+07,
2460140.500000000, A.D. 2023-Jul-15 00:00:00.0000, -4.687410648694509E+07, 4.229674806594143E+08, -3.983624016122407E+07,
2460147.500000000, A.D. 2023-Jul-22 00:00:00.0000, -5.727886672267153E+07, 4.224403497011054E+08, -3.943074874708720E+07,
$$EOE